start=new Date('2022-10-08T00:00:00.000Z').valueOf();
sats=[{"REF_FRAME":"TEME","MEAN_MOTION":"15.06403040","RCS_SIZE":"LARGE","LAUNCH_DATE":"2021-04-07","ARG_OF_PERICENTER":"49.6000","COUNTRY_CODE":"US","OBJECT_NAME":"STARLINK-2449","MEAN_ELEMENT_THEORY":"SGP4","ECCENTRICITY":"0.00015800","TIME_SYSTEM":"UTC","REV_AT_EPOCH":"8411","RA_OF_ASC_NODE":"23.0920","FILE":"3595773","TLE_LINE2":"2 48112  53.0561  23.0920 0001580  49.6000 310.5127 15.06403040 84113","OBJECT_TYPE":"PAYLOAD","MEAN_ANOMALY":"310.5127","TLE_LINE1":"1 48112U 21027W   22280.83960904  .00003653  00000-0  26401-3 0  9994","NORAD_CAT_ID":"48112","PERIAPSIS":"546.110","INCLINATION":"53.0561","MEAN_MOTION_DOT":"0.00003653","SITE":"AFETR","BSTAR":"0.00026401000000","ELEMENT_SET_NO":"999","MEAN_MOTION_DDOT":"0.0000000000000","APOAPSIS":"548.298","EPOCH":"2022-10-07T20:09:02.221056","GP_ID":"214435399","CLASSIFICATION_TYPE":"U","DECAY_DATE":null,"PERIOD":"95.592","SEMIMAJOR_AXIS":"6925.339","EPHEMERIS_TYPE":"0","OBJECT_ID":"2021-027W","CENTER_NAME":"EARTH"},{"REV_AT_EPOCH":"8412","RA_OF_ASC_NODE":"19.4110","FILE":"3595773","ECCENTRICITY":"0.00013760","TIME_SYSTEM":"UTC","OBJECT_NAME":"STARLINK-2450","MEAN_ELEMENT_THEORY":"SGP4","COUNTRY_CODE":"US","ARG_OF_PERICENTER":"67.2456","LAUNCH_DATE":"2021-04-07","RCS_SIZE":"LARGE","REF_FRAME":"TEME","MEAN_MOTION":"15.06389524","MEAN_ANOMALY":"292.8678","TLE_LINE1":"1 48113U 21027X   22280.51017334  .00000265  00000-0  36674-4 0  9990","OBJECT_TYPE":"PAYLOAD","TLE_LINE2":"2 48113  53.0568  19.4110 0001376  67.2456 292.8678 15.06389524 84129","CLASSIFICATION_TYPE":"U","DECAY_DATE":null,"GP_ID":"214435149","EPOCH":"2022-10-07T12:14:38.976576","APOAPSIS":"548.199","MEAN_MOTION_DDOT":"0.0000000000000","SITE":"AFETR","BSTAR":"0.00003667400000","ELEMENT_SET_NO":"999","MEAN_MOTION_DOT":"0.00000265","NORAD_CAT_ID":"48113","PERIAPSIS":"546.293","INCLINATION":"53.0568","CENTER_NAME":"EARTH","OBJECT_ID":"2021-027X","EPHEMERIS_TYPE":"0","SEMIMAJOR_AXIS":"6925.381","PERIOD":"95.593"},{"LAUNCH_DATE":"2021-04-07","RCS_SIZE":"LARGE","REF_FRAME":"TEME","MEAN_MOTION":"15.06406637","RA_OF_ASC_NODE":"14.2794","REV_AT_EPOCH":"8421","FILE":"3595509","ECCENTRICITY":"0.00014200","TIME_SYSTEM":"UTC","OBJECT_NAME":"STARLINK-2451","MEAN_ELEMENT_THEORY":"SGP4","COUNTRY_CODE":"US","ARG_OF_PERICENTER":"67.9228","OBJECT_TYPE":"PAYLOAD","TLE_LINE2":"2 48114  53.0547  14.2794 0001420  67.9228 292.1911 15.06406637 84210","MEAN_ANOMALY":"292.1911","TLE_LINE1":"1 48114U 21027Y   22280.53732265  .00005386  00000-0  38010-3 0  9994","SITE":"AFETR","BSTAR":"0.00038010000000","ELEMENT_SET_NO":"999","MEAN_MOTION_DOT":"0.00005386","NORAD_CAT_ID":"48114","PERIAPSIS":"546.210","INCLINATION":"53.0547","CLASSIFICATION_TYPE":"U","DECAY_DATE":null,"GP_ID":"214404090","EPOCH":"2022-10-07T12:53:44.676960","APOAPSIS":"548.177","MEAN_MOTION_DDOT":"0.0000000000000","OBJECT_ID":"2021-027Y","EPHEMERIS_TYPE":"0","SEMIMAJOR_AXIS":"6925.328","PERIOD":"95.592","CENTER_NAME":"EARTH"},{"ECCENTRICITY":"0.00015790","TIME_SYSTEM":"UTC","REV_AT_EPOCH":"8428","RA_OF_ASC_NODE":"9.1613","FILE":"3595773","ARG_OF_PERICENTER":"61.9937","COUNTRY_CODE":"US","OBJECT_NAME":"STARLINK-2452","MEAN_ELEMENT_THEORY":"SGP4","LAUNCH_DATE":"2021-04-07","REF_FRAME":"TEME","MEAN_MOTION":"15.06407022","RCS_SIZE":"LARGE","MEAN_ANOMALY":"298.1212","TLE_LINE1":"1 48115U 21027Z   22280.56542296  .00005372  00000-0  37917-3 0  9991","OBJECT_TYPE":"PAYLOAD","TLE_LINE2":"2 48115  53.0555   9.1613 0001579  61.9937 298.1212 15.06407022 84285","GP_ID":"214434147","EPOCH":"2022-10-07T13:34:12.543744","CLASSIFICATION_TYPE":"U","DECAY_DATE":null,"MEAN_MOTION_DDOT":"0.0000000000000","APOAPSIS":"548.286","SITE":"AFETR","BSTAR":"0.00037917000000","ELEMENT_SET_NO":"999","NORAD_CAT_ID":"48115","PERIAPSIS":"546.099","INCLINATION":"53.0555","MEAN_MOTION_DOT":"0.00005372","CENTER_NAME":"EARTH","SEMIMAJOR_AXIS":"6925.327","EPHEMERIS_TYPE":"0","OBJECT_ID":"2021-027Z","PERIOD":"95.592"},{"CENTER_NAME":"EARTH","OBJECT_ID":"2021-027AA","EPHEMERIS_TYPE":"0","SEMIMAJOR_AXIS":"6925.368","PERIOD":"95.593","CLASSIFICATION_TYPE":"U","DECAY_DATE":null,"GP_ID":"214434899","EPOCH":"2022-10-07T16:55:56.791488","APOAPSIS":"548.344","MEAN_MOTION_DDOT":"0.0000000000000","BSTAR":"0.00014009000000","ELEMENT_SET_NO":"999","SITE":"AFETR","MEAN_MOTION_DOT":"0.00001805","INCLINATION":"53.0566","PERIAPSIS":"546.121","NORAD_CAT_ID":"48116","TLE_LINE1":"1 48116U 21027AA  22280.70551842  .00001805  00000-0  14009-3 0  9999","MEAN_ANOMALY":"299.8900","OBJECT_TYPE":"PAYLOAD","TLE_LINE2":"2 48116  53.0566  18.5193 0001605  60.2248 299.8900 15.06393689 84164","FILE":"3595773","REV_AT_EPOCH":"8416","RA_OF_ASC_NODE":"18.5193","TIME_SYSTEM":"UTC","ECCENTRICITY":"0.00016050","MEAN_ELEMENT_THEORY":"SGP4","OBJECT_NAME":"STARLINK-2454","COUNTRY_CODE":"US","ARG_OF_PERICENTER":"60.2248","LAUNCH_DATE":"2021-04-07","RCS_SIZE":"LARGE","MEAN_MOTION":"15.06393689","REF_FRAME":"TEME"},{"TLE_LINE1":"1 48117U 21027AB  22280.74327712  .00005200  00000-0  36767-3 0  9999","MEAN_ANOMALY":"299.2030","OBJECT_TYPE":"PAYLOAD","TLE_LINE2":"2 48117  53.0550 358.3588 0001724  60.9131 299.2030 15.06404641 84452","TIME_SYSTEM":"UTC","ECCENTRICITY":"0.00017240","FILE":"3595773","RA_OF_ASC_NODE":"358.3588","REV_AT_EPOCH":"8445","COUNTRY_CODE":"US","ARG_OF_PERICENTER":"60.9131","MEAN_ELEMENT_THEORY":"SGP4","OBJECT_NAME":"STARLINK-2455","LAUNCH_DATE":"2021-04-07","MEAN_MOTION":"15.06404641","REF_FRAME":"TEME","RCS_SIZE":"LARGE","CENTER_NAME":"EARTH","SEMIMAJOR_AXIS":"6925.334","EPHEMERIS_TYPE":"0","OBJECT_ID":"2021-027AB","PERIOD":"95.592","EPOCH":"2022-10-07T17:50:19.143168","GP_ID":"214435650","DECAY_DATE":null,"CLASSIFICATION_TYPE":"U","MEAN_MOTION_DDOT":"0.0000000000000","APOAPSIS":"548.393","BSTAR":"0.00036767000000","ELEMENT_SET_NO":"999","SITE":"AFETR","INCLINATION":"53.0550","PERIAPSIS":"546.005","NORAD_CAT_ID":"48117","MEAN_MOTION_DOT":"0.00005200"},{"CENTER_NAME":"EARTH","PERIOD":"95.592","EPHEMERIS_TYPE":"0","OBJECT_ID":"2021-027AC","SEMIMAJOR_AXIS":"6925.333","MEAN_MOTION_DDOT":"0.0000000000000","APOAPSIS":"548.516","DECAY_DATE":null,"CLASSIFICATION_TYPE":"U","EPOCH":"2022-10-07T13:20:59.142048","GP_ID":"214434398","MEAN_MOTION_DOT":"0.00005212","INCLINATION":"53.0556","PERIAPSIS":"545.879","NORAD_CAT_ID":"48118","ELEMENT_SET_NO":"999","BSTAR":"0.00036851000000","SITE":"AFETR","TLE_LINE1":"1 48118U 21027AC  22280.55624007  .00005212  00000-0  36851-3 0  9993","MEAN_ANOMALY":"308.2052","TLE_LINE2":"2 48118  53.0556 359.2044 0001904  51.9108 308.2052 15.06405125 84420","OBJECT_TYPE":"PAYLOAD","MEAN_ELEMENT_THEORY":"SGP4","OBJECT_NAME":"STARLINK-2458","COUNTRY_CODE":"US","ARG_OF_PERICENTER":"51.9108","FILE":"3595773","REV_AT_EPOCH":"8442","RA_OF_ASC_NODE":"359.2044","TIME_SYSTEM":"UTC","ECCENTRICITY":"0.00019040","RCS_SIZE":"LARGE","MEAN_MOTION":"15.06405125","REF_FRAME":"TEME","LAUNCH_DATE":"2021-04-07"},{"DECAY_DATE":null,"CLASSIFICATION_TYPE":"U","GP_ID":"214434648","EPOCH":"2022-10-07T21:12:00.479232","MEAN_MOTION_DDOT":"0.0000000000000","APOAPSIS":"548.421","BSTAR":"0.00028962000000","ELEMENT_SET_NO":"999","SITE":"AFETR","MEAN_MOTION_DOT":"0.00004036","INCLINATION":"53.0555","NORAD_CAT_ID":"48119","PERIAPSIS":"545.972","CENTER_NAME":"EARTH","EPHEMERIS_TYPE":"0","OBJECT_ID":"2021-027AD","SEMIMAJOR_AXIS":"6925.332","PERIOD":"95.592","FILE":"3595773","REV_AT_EPOCH":"8446","RA_OF_ASC_NODE":"357.7335","TIME_SYSTEM":"UTC","ECCENTRICITY":"0.00017680","MEAN_ELEMENT_THEORY":"SGP4","OBJECT_NAME":"STARLINK-2459","ARG_OF_PERICENTER":"53.8101","COUNTRY_CODE":"US","LAUNCH_DATE":"2021-04-07","RCS_SIZE":"LARGE","MEAN_MOTION":"15.06405446","REF_FRAME":"TEME","TLE_LINE1":"1 48119U 21027AD  22280.88333888  .00004036  00000-0  28962-3 0  9991","MEAN_ANOMALY":"306.3051","OBJECT_TYPE":"PAYLOAD","TLE_LINE2":"2 48119  53.0555 357.7335 0001768  53.8101 306.3051 15.06405446 84466"},{"OBJECT_NAME":"STARLINK-2460","MEAN_ELEMENT_THEORY":"SGP4","COUNTRY_CODE":"US","ARG_OF_PERICENTER":"70.4177","REV_AT_EPOCH":"8377","RA_OF_ASC_NODE":"18.3027","FILE":"3595606","ECCENTRICITY":"0.00016520","TIME_SYSTEM":"UTC","RCS_SIZE":"LARGE","REF_FRAME":"TEME","MEAN_MOTION":"15.06410388","LAUNCH_DATE":"2021-04-07","MEAN_ANOMALY":"289.6990","TLE_LINE1":"1 48120U 21027AE  22280.75711760  .00005687  00000-0  40025-3 0  9995","TLE_LINE2":"2 48120  53.0555  18.3027 0001652  70.4177 289.6990 15.06410388 83775","OBJECT_TYPE":"PAYLOAD","APOAPSIS":"548.326","MEAN_MOTION_DDOT":"0.0000000000000","CLASSIFICATION_TYPE":"U","DECAY_DATE":null,"GP_ID":"214409970","EPOCH":"2022-10-07T18:10:14.960640","MEAN_MOTION_DOT":"0.00005687","PERIAPSIS":"546.038","NORAD_CAT_ID":"48120","INCLINATION":"53.0555","SITE":"AFETR","BSTAR":"0.00040025000000","ELEMENT_SET_NO":"999","CENTER_NAME":"EARTH","PERIOD":"95.591","OBJECT_ID":"2021-027AE","EPHEMERIS_TYPE":"0","SEMIMAJOR_AXIS":"6925.317"},{"REV_AT_EPOCH":"8429","RA_OF_ASC_NODE":"8.7257","FILE":"3595773","ECCENTRICITY":"0.00014890","TIME_SYSTEM":"UTC","OBJECT_NAME":"STARLINK-2462","MEAN_ELEMENT_THEORY":"SGP4","ARG_OF_PERICENTER":"71.1519","COUNTRY_CODE":"US","LAUNCH_DATE":"2021-04-07","RCS_SIZE":"LARGE","REF_FRAME":"TEME","MEAN_MOTION":"15.06400605","MEAN_ANOMALY":"288.9631","TLE_LINE1":"1 48121U 21027AF  22280.66220496  .00001535  00000-0  12189-3 0  9995","OBJECT_TYPE":"PAYLOAD","TLE_LINE2":"2 48121  53.0572   8.7257 0001489  71.1519 288.9631 15.06400605 84292","CLASSIFICATION_TYPE":"U","DECAY_DATE":null,"GP_ID":"214435150","EPOCH":"2022-10-07T15:53:34.508544","APOAPSIS":"548.243","MEAN_MOTION_DDOT":"0.0000000000000","SITE":"AFETR","BSTAR":"0.00012189000000","ELEMENT_SET_NO":"999","MEAN_MOTION_DOT":"0.00001535","NORAD_CAT_ID":"48121","PERIAPSIS":"546.181","INCLINATION":"53.0572","CENTER_NAME":"EARTH","OBJECT_ID":"2021-027AF","EPHEMERIS_TYPE":"0","SEMIMAJOR_AXIS":"6925.347","PERIOD":"95.592"}];
